NORAD_CAT_ID,OBJECT_NAME,OBJECT_TYPE,EPOCH,MEAN_MOTION,ECCENTRICITY,INCLINATION,RA_OF_ASC_NODE,ARG_OF_PERICENTER,MEAN_ANOMALY,BSTAR,MEAN_MOTION_DOT,MEAN_MOTION_DDOT,TLE_LINE0,TLE_LINE1,TLE_LINE2,SEMIMAJOR_AXIS,PERIOD,APOGEE,PERIGEE,DECAYED
52294.0,STARLINK-3777,PAYLOAD,2023-04-08 11:30:31,15.08842355,0.0001229,53.2161,205.5244,88.5057,271.6076,0.00028692,4.282e-05,0.0,0 STARLINK-3777,1 52294U 22041AK  23098.47953333  .00004282  00000-0  28692-3 0  9996,2 52294  53.2161 205.5244 0001229  88.5057 271.6076 15.08842355 54763,6917.873,95.437,540.588,538.888,0.0
52294.0,STARLINK-3777,PAYLOAD,2023-04-08 13:05:54,15.08844268,0.0001428,53.2148,205.2258,87.3884,272.7271,0.00043857,6.7e-05,0.0,0 STARLINK-3777,1 52294U 22041AK  23098.54577359  .00006700  00000-0  43857-3 0  9991,2 52294  53.2148 205.2258 0001428  87.3884 272.7271 15.08844268 53556,6917.867,95.437,540.72,538.744,0.0
52294.0,STARLINK-3777,PAYLOAD,2023-04-09 06:35:09,15.08840573,0.0001223,53.2144,201.9562,101.5181,258.5949,0.00066073,0.00010243,0.0,0 STARLINK-3777,1 52294U 22041AK  23099.27441605  .00010243  00000-0  66073-3 0  9998,2 52294  53.2144 201.9562 0001223 101.5181 258.5949 15.08840573 54881,6917.879,95.438,540.59,538.898,0.0
52294.0,STARLINK-3777,PAYLOAD,2023-04-09 11:21:19,15.08836479,0.0001556,53.2144,201.0649,76.5616,283.555,0.00022855,3.351e-05,0.0,0 STARLINK-3777,1 52294U 22041AK  23099.47313844  .00003351  00000-0  22855-3 0  9995,2 52294  53.2144 201.0649 0001556  76.5616 283.5550 15.08836479 53695,6917.891,95.438,540.833,538.68,0.0
52294.0,STARLINK-3777,PAYLOAD,2023-04-09 12:56:42,15.08836069,0.0001414,53.2148,200.7661,95.891,264.2243,0.00019744,2.855e-05,0.0,0 STARLINK-3777,1 52294U 22041AK  23099.53937718  .00002855  00000-0  19744-3 0  9995,2 52294  53.2148 200.7661 0001414  95.8910 264.2243 15.08836069 54920,6917.892,95.438,540.736,538.779,0.0
52294.0,STARLINK-3777,PAYLOAD,2023-04-10 06:25:57,15.08835484,0.0001438,53.2144,197.4958,75.0425,285.0727,0.00013779,1.905e-05,0.0,0 STARLINK-3777,1 52294U 22041AK  23100.26802223  .00001905  00000-0  13779-3 0  9997,2 52294  53.2144 197.4958 0001438  75.0425 285.0727 15.08835484 55035,6917.894,95.438,540.754,538.764,0.0
52294.0,STARLINK-3777,PAYLOAD,2023-04-10 23:55:11,15.08847703,0.0001539,53.2137,194.2252,71.6412,288.4748,0.00013668,1.888e-05,0.0,0 STARLINK-3777,1 52294U 22041AK  23100.99665703  .00001888  00000-0  13668-3 0  9994,2 52294  53.2137 194.2252 0001539  71.6412 288.4748 15.08847703 55148,6917.857,95.437,540.787,538.657,0.0
52294.0,STARLINK-3777,PAYLOAD,2023-04-11 11:02:53,15.08851068,0.0001522,53.2129,192.1433,70.8177,289.298,0.00033264,5.012e-05,0.0,0 STARLINK-3777,1 52294U 22041AK  23101.46033575  .00005012  00000-0  33264-3 0  9990,2 52294  53.2129 192.1433 0001522  70.8177 289.2980 15.08851068 53995,6917.847,95.437,540.764,538.659,0.0
52294.0,STARLINK-3777,PAYLOAD,2023-04-12 12:29:03,15.0884407,0.0001188,53.2141,187.3831,88.0891,272.0237,6.5394e-05,7.53e-06,0.0,0 STARLINK-3777,1 52294U 22041AK  23102.52017535  .00000753  00000-0  65394-4 0  9993,2 52294  53.2141 187.3831 0001188  88.0891 272.0237 15.08844070 55373,6917.868,95.437,540.555,538.911,0.0
52294.0,STARLINK-3777,PAYLOAD,2023-04-13 10:44:27,15.08843019,0.0001296,53.214,183.2211,78.668,281.4457,4.5588e-05,4.38e-06,0.0,0 STARLINK-3777,1 52294U 22041AK  23103.44753520  .00000438  00000-0  45588-4 0  9999,2 52294  53.2140 183.2211 0001296  78.6680 281.4457 15.08843019 54290,6917.871,95.437,540.633,538.84,0.0
52294.0,STARLINK-3777,PAYLOAD,2023-04-14 10:35:14,15.0883404,0.000139,53.2156,178.7623,98.038,262.077,1.5702e-05,-3.8e-07,0.0,0 STARLINK-3777,1 52294U 22041AK  23104.44114120 -.00000038  00000-0  15702-4 0  9999,2 52294  53.2156 178.7623 0001390  98.0380 262.0770 15.08834040 54445,6917.899,95.438,540.725,538.802,0.0
52294.0,STARLINK-3777,PAYLOAD,2023-04-14 21:42:56,15.08841376,0.0001282,53.2144,176.6794,91.1941,268.9198,8.3758e-05,1.045e-05,0.0,0 STARLINK-3777,1 52294U 22041AK  23104.90481823  .00001045  00000-0  83758-4 0  9991,2 52294  53.2144 176.6794 0001282  91.1941 268.9198 15.08841376 55737,6917.876,95.437,540.628,538.854,0.0
52294.0,STARLINK-3777,PAYLOAD,2023-04-15 12:01:24,15.08851697,0.0001391,53.2152,174.0032,92.2827,267.8324,0.00028344,4.227e-05,0.0,0 STARLINK-3777,1 52294U 22041AK  23105.50097481  .00004227  00000-0  28344-3 0  9995,2 52294  53.2152 174.0032 0001391  92.2827 267.8324 15.08851697 54600,6917.845,95.437,540.672,538.747,0.0
52294.0,STARLINK-3777,PAYLOAD,2023-04-15 21:33:43,15.08845777,0.0001269,53.2142,172.2182,94.5549,265.5588,0.00015303,2.149e-05,0.0,0 STARLINK-3777,1 52294U 22041AK  23105.89841529  .00002149  00000-0  15303-3 0  9999,2 52294  53.2142 172.2182 0001269  94.5549 265.5588 15.08845777 54660,6917.863,95.437,540.606,538.85,0.0
52294.0,STARLINK-3777,PAYLOAD,2023-04-16 05:30:39,15.0883737,0.000158,53.2151,170.732,92.2181,267.8992,5.0676e-05,5.19e-06,0.0,0 STARLINK-3777,1 52294U 22041AK  23106.22962034  .00000519  00000-0  50676-4 0  9994,2 52294  53.2151 170.7320 0001580  92.2181 267.8992 15.08837370 55935,6917.888,95.438,540.846,538.66,0.0
52294.0,STARLINK-3777,PAYLOAD,2023-04-16 10:16:48,15.08841211,0.0001547,53.2156,169.8398,89.821,270.296,0.00010072,1.315e-05,0.0,0 STARLINK-3777,1 52294U 22041AK  23106.42833964  .00001315  00000-0  10072-3 0  9995,2 52294  53.2156 169.8398 0001547  89.8210 270.2960 15.08841211 54742,6917.877,95.437,540.812,538.671,0.0
52294.0,STARLINK-3777,PAYLOAD,2023-04-16 21:24:30,15.08842652,0.0001422,53.2155,167.7582,80.7675,279.3478,0.00012015,1.625e-05,0.0,0 STARLINK-3777,1 52294U 22041AK  23106.89202037  .00001625  00000-0  12015-3 0  9990,2 52294  53.2155 167.7582 0001422  80.7675 279.3478 15.08842652 54812,6917.872,95.437,540.721,538.754,0.0
52294.0,STARLINK-3777,PAYLOAD,2023-04-17 10:07:35,15.08838302,0.0001548,53.2149,165.3786,85.5944,274.5225,-8.9139e-06,-4.3e-06,0.0,0 STARLINK-3777,1 52294U 22041AK  23107.42194317 -.00000430  00000-0 -89139-5 0  9999,2 52294  53.2149 165.3786 0001548  85.5944 274.5225 15.08838302 56115,6917.886,95.438,540.821,538.68,0.0
52294.0,STARLINK-3777,PAYLOAD,2023-04-17 21:15:17,15.08839572,0.0001635,53.2154,163.2985,81.0481,279.0696,8.8016e-05,1.113e-05,0.0,0 STARLINK-3777,1 52294U 22041AK  23107.88562408  .00001113  00000-0  88016-4 0  9998,2 52294  53.2154 163.2985 0001635  81.0481 279.0696 15.08839572 54966,6917.882,95.438,540.878,538.616,0.0
52294.0,STARLINK-3777,PAYLOAD,2023-04-18 09:58:22,15.08844697,0.0001976,53.2152,160.919,93.9049,266.2169,3.1309e-05,2.1e-06,0.0,0 STARLINK-3777,1 52294U 22041AK  23108.41554206  .00000210  00000-0  31309-4 0  9995,2 52294  53.2152 160.9190 0001976  93.9049 266.2169 15.08844697 55043,6917.866,95.437,541.098,538.364,0.0
52294.0,STARLINK-3777,PAYLOAD,2023-04-18 13:09:08,15.08842642,0.0001261,53.2142,160.3228,83.6313,276.4823,0.00013283,1.827e-05,0.0,0 STARLINK-3777,1 52294U 22041AK  23108.54802064  .00001827  00000-0  13283-3 0  9992,2 52294  53.2142 160.3228 0001261  83.6313 276.4823 15.08842642 56280,6917.872,95.437,540.61,538.865,0.0
52294.0,STARLINK-3777,PAYLOAD,2023-04-19 12:59:56,15.08842343,0.0001458,53.2138,155.8604,98.0565,262.0593,0.00012018,1.625e-05,0.0,0 STARLINK-3777,1 52294U 22041AK  23109.54162210  .00001625  00000-0  12018-3 0  9996,2 52294  53.2138 155.8604 0001458  98.0565 262.0593 15.08842343 56439,6917.873,95.437,540.747,538.73,0.0
52294.0,STARLINK-3777,PAYLOAD,2023-04-20 03:18:25,15.08823792,0.0001261,53.2146,153.1847,112.9355,247.177,0.0002453,3.617e-05,0.0,0 STARLINK-3777,1 52294U 22041AK  23110.13779091  .00003617  00000-0  24530-3 0  9999,2 52294  53.2146 153.1847 0001261 112.9355 247.1770 15.08823792 56521,6917.93,95.439,540.667,538.923,0.0
52294.0,STARLINK-3777,PAYLOAD,2023-04-20 12:50:43,15.08839485,0.0001487,53.2152,151.4017,101.6042,258.5117,6.4885e-05,7.45e-06,0.0,0 STARLINK-3777,1 52294U 22041AK  23110.53522688  .00000745  00000-0  64885-4 0  9998,2 52294  53.2152 151.4017 0001487 101.6042 258.5117 15.08839485 55364,6917.882,95.438,540.776,538.718,0.0
52294.0,STARLINK-3777,PAYLOAD,2023-04-20 19:12:16,15.08834411,0.0001333,53.2144,150.2115,91.5287,268.5858,-4.8055e-05,-1.052e-05,0.0,0 STARLINK-3777,1 52294U 22041AK  23110.80019281 -.00001052  00000-0 -48055-4 0  9993,2 52294  53.2144 150.2115 0001333  91.5287 268.5858 15.08834411 55401,6917.897,95.438,540.685,538.84,0.0
52294.0,STARLINK-3777,PAYLOAD,2023-04-21 03:09:12,15.08830627,0.000139,53.2153,148.7241,105.0816,255.033,-1.4665e-05,-5.21e-06,0.0,0 STARLINK-3777,1 52294U 22041AK  23111.13139632 -.00000521  00000-0 -14665-4 0  9993,2 52294  53.2153 148.7241 0001390 105.0816 255.0330 15.08830627 56676,6917.909,95.438,540.736,538.812,0.0
52294.0,STARLINK-3777,PAYLOAD,2023-04-21 09:30:44,15.08834494,0.0001373,53.2144,147.5351,101.4828,258.6318,2.1574e-05,5.5e-07,0.0,0 STARLINK-3777,1 52294U 22041AK  23111.39635408  .00000055  00000-0  21574-4 0  9990,2 52294  53.2144 147.5351 0001373 101.4828 258.6318 15.08834494 55499,6917.897,95.438,540.712,538.812,0.0
52294.0,STARLINK-3777,PAYLOAD,2023-04-21 19:03:03,15.08840154,0.0001309,53.2144,145.7511,98.0307,262.0834,2.7529e-05,1.5e-06,0.0,0 STARLINK-3777,1 52294U 22041AK  23111.79379127  .00000150  00000-0  27529-4 0  9999,2 52294  53.2144 145.7511 0001309  98.0307 262.0834 15.08840154 56773,6917.88,95.438,540.65,538.839,0.0
52294.0,STARLINK-3777,PAYLOAD,2023-04-22 01:24:36,15.08838344,0.0001252,53.2142,144.5614,98.3484,261.765,0.00013917,1.928e-05,0.0,0 STARLINK-3777,1 52294U 22041AK  23112.05875094  .00001928  00000-0  13917-3 0  9992,2 52294  53.2142 144.5614 0001252  98.3484 261.7650 15.08838344 55597,6917.885,95.438,540.617,538.884,0.0
52294.0,STARLINK-3777,PAYLOAD,2023-04-22 18:53:50,15.08844642,0.0001171,53.215,141.2908,92.4778,267.6348,0.00011261,1.505e-05,0.0,0 STARLINK-3777,1 52294U 22041AK  23112.78738860  .00001505  00000-0  11261-3 0  9992,2 52294  53.2150 141.2908 0001171  92.4778 267.6348 15.08844642 55707,6917.866,95.437,540.541,538.921,0.0
